{
"type": "FeatureCollection",
"name": "rumah_sakit_binjai",
"crs": { "type": "name", "properties": { "name": "urn:ogc:def:crs:OGC:1.3:CRS84" } },
"features": [
{ "type": "Feature", "properties": { "Nama": "RS Umum Daerah Dr. R. M. Djoelham Binjai", "Kecamatan": "Binjai Kota", "Alamat": "Jl Sultan Hasanuddin No. 9 Binjai", "Jenis RS": "RSU", "Kelas RS": "B", "Kepemilika": "Pemkot", "Y": 3.6021562, "X": 98.48272811, "Link Profi": "https://sirs.kemkes.go.id/fo/home/profile_rs/1276014", "Link Gmaps": "https://maps.app.goo.gl/ih9ssQ5fcnxKPaZYA" }, "geometry": { "type": "Point", "coordinates": [ 98.48272811, 3.6021562 ] } },
{ "type": "Feature", "properties": { "Nama": "RS Umum Sylvani", "Kecamatan": "Binjai Utara", "Alamat": "Jl. Perintis Kemerdekaan No. 21", "Jenis RS": "RSU", "Kelas RS": "C", "Kepemilika": "Perusahaan", "Y": 3.618801336, "X": 98.49643067, "Link Profi": "https://sirs.kemkes.go.id/fo/home/profile_rs/1276077", "Link Gmaps": "https://maps.app.goo.gl/4aB35jpJG2rwPnabA" }, "geometry": { "type": "Point", "coordinates": [ 98.49643067, 3.618801336 ] } },
{ "type": "Feature", "properties": { "Nama": "RS Umum Ratu Mas", "Kecamatan": "Binjai Utara", "Alamat": "Jl Tengku Amir Hamzah No. 281a Kelurahan Jati makmur", "Jenis RS": "RSU", "Kelas RS": "D", "Kepemilika": "Perusahaan", "Y": 3.632595842, "X": 98.51037458, "Link Profi": "https://sirs.kemkes.go.id/fo/home/profile_rs/1276076", "Link Gmaps": "https://maps.app.goo.gl/Eyy3uQkGxW4XQsPX9" }, "geometry": { "type": "Point", "coordinates": [ 98.51037458, 3.632595842 ] } },
{ "type": "Feature", "properties": { "Nama": "RS Umum Latersia", "Kecamatan": "Binjai Timur", "Alamat": "Jalan Soekarno Hatta Kilometer 18 Nomor 451", "Jenis RS": "RSU", "Kelas RS": "C", "Kepemilika": "Perusahaan", "Y": 3.607624248, "X": 98.52601034, "Link Profi": "https://sirs.kemkes.go.id/fo/home/profile_rs/1276074", "Link Gmaps": "https://maps.app.goo.gl/H5yDf9pbuuV6c4MeA" }, "geometry": { "type": "Point", "coordinates": [ 98.52601034, 3.607624248 ] } },
{ "type": "Feature", "properties": { "Nama": "RS Umum Bidadari", "Kecamatan": "Binjai Utara", "Alamat": "Jalan Perintis Kemerdekaan Nomor 174 Kelurah Kebun Lada", "Jenis RS": "RSU", "Kelas RS": "C", "Kepemilika": "Perusahaan", "Y": 3.629750043, "X": 98.49275355, "Link Profi": "https://sirs.kemkes.go.id/fo/home/profile_rs/1276075", "Link Gmaps": "https://maps.app.goo.gl/pvfBJVf6VSjCAjV26" }, "geometry": { "type": "Point", "coordinates": [ 98.49275355, 3.629750043 ] } },
{ "type": "Feature", "properties": { "Nama": "RS Umum Artha Medica", "Kecamatan": "Binjai Kota", "Alamat": "Jl. Samanhudi No. 22", "Jenis RS": "RSU", "Kelas RS": "C", "Kepemilika": "Organisasi Sosial", "Y": 3.599082442, "X": 98.47863608, "Link Profi": "https://sirs.kemkes.go.id/fo/home/profile_rs/1276036", "Link Gmaps": "https://maps.app.goo.gl/UUpSVhX4shKvrRqy9" }, "geometry": { "type": "Point", "coordinates": [ 98.47863608, 3.599082442 ] } },
{ "type": "Feature", "properties": { "Nama": "RS Umum AL Fuadi", "Kecamatan": "Binjai Kota", "Alamat": "Jl Ahmad Yani No 23", "Jenis RS": "RSU", "Kelas RS": "C", "Kepemilika": "Organisasi Sosial", "Y": 3.602965126, "X": 98.48637146, "Link Profi": "https://sirs.kemkes.go.id/fo/home/profile_rs/1276078", "Link Gmaps": "https://maps.app.goo.gl/5gE62JRWbdHxyzue7" }, "geometry": { "type": "Point", "coordinates": [ 98.48637146, 3.602965126 ] } },
{ "type": "Feature", "properties": { "Nama": "RS Tk. IV 01.07.02 Binjai", "Kecamatan": "Binjai Selatan", "Alamat": "Jalan Bandung No 4", "Jenis RS": "RSU", "Kelas RS": "C", "Kepemilika": "TNI AD", "Y": 3.598212679, "X": 98.48756037, "Link Profi": "https://sirs.kemkes.go.id/fo/home/profile_rs/1276040", "Link Gmaps": "https://maps.app.goo.gl/Tm7AH5mpY85WUTGz6" }, "geometry": { "type": "Point", "coordinates": [ 98.48756037, 3.598212679 ] } },
{ "type": "Feature", "properties": { "Nama": "RS Ibu dan Anak Grand Fatimah", "Kecamatan": "Binjai Kota", "Alamat": "Jl. Sultan Hasanuddin No. 67", "Jenis RS": "RSIA", "Kelas RS": "C", "Kepemilika": "Swasta", "Y": 3.601159945, "X": 98.48520155, "Link Profi": "https://sirs.kemkes.go.id/fo/home/profile_rs/1276092", "Link Gmaps": "https://maps.app.goo.gl/RfUB6WjimuPSTDHq8" }, "geometry": { "type": "Point", "coordinates": [ 98.48520155, 3.601159945 ] } },
{ "type": "Feature", "properties": { "Nama": "OG Hospital", "Kecamatan": "Binjai Timur", "Alamat": "Jl. Olahraga No. 1", "Jenis RS": "RSU", "Kelas RS": "C", "Kepemilika": "Perusahaan", "Y": 3.607957687, "X": 98.49787685, "Link Profi": "https://sirs.kemkes.go.id/fo/home/profile_rs/1276079", "Link Gmaps": "https://maps.app.goo.gl/FxA7akQ6dgroW48w9" }, "geometry": { "type": "Point", "coordinates": [ 98.49787685, 3.607957687 ] } }
]
}
